{
  "type": "FeatureCollection",
  "features": [
    {
      "type": "Feature",
      "properties": {
        "norad_id": 34350,
        "name": "IRIDIUM 33 DEB",
        "group": "iridium-33-debris",
        "lat": 26.57442256985064,
        "lon": 177.17306544669404,
        "alt_km": 727.9997192758565,
        "timestamp": "2025-12-21T11:31:43.243870+00:00",
        "meta_object_name": "IRIDIUM 33 DEB",
        "meta_object_id": "1997-051ES",
        "meta_epoch": "2025-12-21T01:05:51.116064",
        "meta_mean_motion": 14.4540434,
        "meta_eccentricity": 0.0023383,
        "meta_inclination": 86.3272,
        "meta_ra_of_asc_node": 359.2028,
        "meta_arg_of_pericenter": 109.7302,
        "meta_mean_anomaly": 303.2035,
        "meta_ephemeris_type": 0,
        "meta_classification_type": "U",
        "meta_norad_cat_id": 34350,
        "meta_element_set_no": 999,
        "meta_rev_at_epoch": 88413,
        "meta_bstar": 0.00022993,
        "meta_mean_motion_dot": 8.32e-06,
        "meta_mean_motion_ddot": 0,
        "tle_line1": "1 34350U 97051ES  25355.04573051  .00000832  00000+0  22993-3 0  9992",
        "tle_line2": "2 34350  86.3272 359.2028 0023383 109.7302 303.2035 14.45404340884134"
      },
      "geometry": {
        "type": "Point",
        "coordinates": [
          177.17306544669404,
          26.57442256985064
        ]
      }
    },
    {
      "type": "Feature",
      "properties": {
        "norad_id": 34366,
        "name": "IRIDIUM 33 DEB",
        "group": "iridium-33-debris",
        "lat": 33.81532202499823,
        "lon": 47.949615755279126,
        "alt_km": 706.8617190043951,
        "timestamp": "2025-12-21T11:31:43.243880+00:00",
        "meta_object_name": "IRIDIUM 33 DEB",
        "meta_object_id": "1997-051FJ",
        "meta_epoch": "2025-12-21T03:14:39.196032",
        "meta_mean_motion": 14.54116771,
        "meta_eccentricity": 0.0022998,
        "meta_inclination": 86.369,
        "meta_ra_of_asc_node": 45.662,
        "meta_arg_of_pericenter": 113.5248,
        "meta_mean_anomaly": 274.8967,
        "meta_ephemeris_type": 0,
        "meta_classification_type": "U",
        "meta_norad_cat_id": 34366,
        "meta_element_set_no": 999,
        "meta_rev_at_epoch": 88304,
        "meta_bstar": 0.00059167,
        "meta_mean_motion_dot": 2.529e-05,
        "meta_mean_motion_ddot": 0,
        "tle_line1": "1 34366U 97051FJ  25355.13517588  .00002529  00000+0  59167-3 0  9990",
        "tle_line2": "2 34366  86.3690  45.6620 0022998 113.5248 274.8967 14.54116771883046"
      },
      "geometry": {
        "type": "Point",
        "coordinates": [
          47.949615755279126,
          33.81532202499823
        ]
      }
    },
    {
      "type": "Feature",
      "properties": {
        "norad_id": 34375,
        "name": "IRIDIUM 33 DEB",
        "group": "iridium-33-debris",
        "lat": -75.40941197360408,
        "lon": 13.044475109415206,
        "alt_km": 907.9422773727374,
        "timestamp": "2025-12-21T11:31:43.243891+00:00",
        "meta_object_name": "IRIDIUM 33 DEB",
        "meta_object_id": "1997-051FT",
        "meta_epoch": "2025-12-21T00:46:06.767328",
        "meta_mean_motion": 14.18006296,
        "meta_eccentricity": 0.0103701,
        "meta_inclination": 86.4323,
        "meta_ra_of_asc_node": 179.3579,
        "meta_arg_of_pericenter": 100.8025,
        "meta_mean_anomaly": 27.2657,
        "meta_ephemeris_type": 0,
        "meta_classification_type": "U",
        "meta_norad_cat_id": 34375,
        "meta_element_set_no": 999,
        "meta_rev_at_epoch": 86829,
        "meta_bstar": 0.00030848,
        "meta_mean_motion_dot": 6.86e-06,
        "meta_mean_motion_ddot": 0,
        "tle_line1": "1 34375U 97051FT  25355.03202277  .00000686  00000+0  30848-3 0  9992",
        "tle_line2": "2 34375  86.4323 179.3579 0103701 100.8025  27.2657 14.18006296868298"
      },
      "geometry": {
        "type": "Point",
        "coordinates": [
          13.044475109415206,
          -75.40941197360408
        ]
      }
    },
    {
      "type": "Feature",
      "properties": {
        "norad_id": 34376,
        "name": "IRIDIUM 33 DEB",
        "group": "iridium-33-debris",
        "lat": -50.166669630648805,
        "lon": -172.93803498391904,
        "alt_km": 692.3431191397458,
        "timestamp": "2025-12-21T11:31:43.243901+00:00",
        "meta_object_name": "IRIDIUM 33 DEB",
        "meta_object_id": "1997-051FU",
        "meta_epoch": "2025-12-21T00:37:48.894240",
        "meta_mean_motion": 14.62669201,
        "meta_eccentricity": 0.0028109,
        "meta_inclination": 86.2976,
        "meta_ra_of_asc_node": 2.814,
        "meta_arg_of_pericenter": 139.3438,
        "meta_mean_anomaly": 220.9879,
        "meta_ephemeris_type": 0,
        "meta_classification_type": "U",
        "meta_norad_cat_id": 34376,
        "meta_element_set_no": 999,
        "meta_rev_at_epoch": 88128,
        "meta_bstar": 0.000896,
        "meta_mean_motion_dot": 4.606e-05,
        "meta_mean_motion_ddot": 0,
        "tle_line1": "1 34376U 97051FU  25355.02626035  .00004606  00000+0  89600-3 0  9990",
        "tle_line2": "2 34376  86.2976   2.8140 0028109 139.3438 220.9879 14.62669201881280"
      },
      "geometry": {
        "type": "Point",
        "coordinates": [
          -172.93803498391904,
          -50.166669630648805
        ]
      }
    },
    {
      "type": "Feature",
      "properties": {
        "norad_id": 34486,
        "name": "IRIDIUM 33 DEB",
        "group": "iridium-33-debris",
        "lat": 54.48862313183318,
        "lon": 13.06116903737067,
        "alt_km": 565.5873182372452,
        "timestamp": "2025-12-21T11:31:43.243912+00:00",
        "meta_object_name": "IRIDIUM 33 DEB",
        "meta_object_id": "1997-051GB",
        "meta_epoch": "2025-12-21T01:57:25.087104",
        "meta_mean_motion": 14.96136248,
        "meta_eccentricity": 0.001392,
        "meta_inclination": 86.3926,
        "meta_ra_of_asc_node": 8.1733,
        "meta_arg_of_pericenter": 88.5923,
        "meta_mean_anomaly": 339.5471,
        "meta_ephemeris_type": 0,
        "meta_classification_type": "U",
        "meta_norad_cat_id": 34486,
        "meta_element_set_no": 999,
        "meta_rev_at_epoch": 89111,
        "meta_bstar": 0.0013205,
        "meta_mean_motion_dot": 0.00014928,
        "meta_mean_motion_ddot": 0,
        "tle_line1": "1 34486U 97051GB  25355.08154036  .00014928  00000+0  13205-2 0  9990",
        "tle_line2": "2 34486  86.3926   8.1733 0013920  88.5923 339.5471 14.96136248891119"
      },
      "geometry": {
        "type": "Point",
        "coordinates": [
          13.06116903737067,
          54.48862313183318
        ]
      }
    },
    {
      "type": "Feature",
      "properties": {
        "norad_id": 34487,
        "name": "IRIDIUM 33 DEB",
        "group": "iridium-33-debris",
        "lat": -32.50213758390825,
        "lon": -169.05075787995915,
        "alt_km": 762.6111052634342,
        "timestamp": "2025-12-21T11:31:43.243922+00:00",
        "meta_object_name": "IRIDIUM 33 DEB",
        "meta_object_id": "1997-051GC",
        "meta_epoch": "2025-12-21T00:51:13.870080",
        "meta_mean_motion": 14.43225793,
        "meta_eccentricity": 0.0033211,
        "meta_inclination": 86.343,
        "meta_ra_of_asc_node": 8.8054,
        "meta_arg_of_pericenter": 102.5675,
        "meta_mean_anomaly": 320.0917,
        "meta_ephemeris_type": 0,
        "meta_classification_type": "U",
        "meta_norad_cat_id": 34487,
        "meta_element_set_no": 999,
        "meta_rev_at_epoch": 88368,
        "meta_bstar": 0.00013015,
        "meta_mean_motion_dot": 4.61e-06,
        "meta_mean_motion_ddot": 0,
        "tle_line1": "1 34487U 97051GC  25355.03557720  .00000461  00000+0  13015-3 0  9990",
        "tle_line2": "2 34487  86.3430   8.8054 0033211 102.5675 320.0917 14.43225793883688"
      },
      "geometry": {
        "type": "Point",
        "coordinates": [
          -169.05075787995915,
          -32.50213758390825
        ]
      }
    },
    {
      "type": "Feature",
      "properties": {
        "norad_id": 34488,
        "name": "IRIDIUM 33 DEB",
        "group": "iridium-33-debris",
        "lat": 41.80532993369963,
        "lon": -55.22857891716634,
        "alt_km": 460.9129257886034,
        "timestamp": "2025-12-21T11:31:43.243933+00:00",
        "meta_object_name": "IRIDIUM 33 DEB",
        "meta_object_id": "1997-051GD",
        "meta_epoch": "2025-12-20T21:13:54.490080",
        "meta_mean_motion": 15.31302202,
        "meta_eccentricity": 0.0010948,
        "meta_inclination": 86.3254,
        "meta_ra_of_asc_node": 301.7725,
        "meta_arg_of_pericenter": 38.0894,
        "meta_mean_anomaly": 322.1127,
        "meta_ephemeris_type": 0,
        "meta_classification_type": "U",
        "meta_norad_cat_id": 34488,
        "meta_element_set_no": 999,
        "meta_rev_at_epoch": 89364,
        "meta_bstar": 0.0030791,
        "meta_mean_motion_dot": 0.00094223,
        "meta_mean_motion_ddot": 0,
        "tle_line1": "1 34488U 97051GD  25354.88465845  .00094223  00000+0  30791-2 0  9997",
        "tle_line2": "2 34488  86.3254 301.7725 0010948  38.0894 322.1127 15.31302202893643"
      },
      "geometry": {
        "type": "Point",
        "coordinates": [
          -55.22857891716634,
          41.80532993369963
        ]
      }
    }
  ]
}